ONEWEB-0249             
1 48967U 21060A   24251.86198334 -.00000395  00000+0 -10675-2 0  9998
2 48967  87.9174 357.6807 0001831  99.9389 260.1949 13.16593959154437
ONEWEB-0250             
1 48968U 21060B   24251.83437609  .00000117  00000+0  23776-3 0  9994
2 48968  87.9173 357.5484 0002067 110.7194 249.4164 13.25521782154440
ONEWEB-0252             
1 48970U 21060D   24251.81765545  .00000294  00000+0  73465-3 0  9994
2 48970  87.9177 357.6829 0001601 100.3893 259.7418 13.16591605154475
ONEWEB-0253             
1 48971U 21060E   24251.80656561 -.00000367  00000+0 -99389-3 0  9997
2 48971  87.9174 357.6958 0001731 111.0400 249.0916 13.16593131154407
ONEWEB-0254             
1 48972U 21060F   24251.81606405 -.00000248  00000+0 -68230-3 0  9990
2 48972  87.9174 357.6727 0001896 105.2074 254.9266 13.16593806154408
ONEWEB-0255             
1 48973U 21060G   24251.85408466 -.00000003  00000+0 -41163-4 0  9998
2 48973  87.9174 357.6996 0001933 112.3760 247.7576 13.16592413154485
ONEWEB-0256             
1 48974U 21060H   24251.80420936 -.00001822  00000+0 -47995-2 0  9997
2 48974  87.9177 357.7153 0001740  90.5069 269.6262 13.16602556154441
ONEWEB-0257             
1 48975U 21060J   24251.83665595  .00000119  00000+0  27814-3 0  9998
2 48975  87.9175 357.6775 0001596 101.7426 258.3884 13.16591318154404
